API VERSION: 1.2
API SOURCE: NASA/JPL Horizons API



*******************************************************************************
Ephemeris / API_USER Mon Oct 30 14:03:25 2023 Pasadena, USA      / Horizons    
*******************************************************************************
Target body name: Moon (301)                      {source: DE441}
Center body name: Earth (399)                     {source: DE441}
Center-site name: GEOCENTRIC
*******************************************************************************
Start time      : A.D. 2025-Jan-01 00:00:00.0000 UT      
Stop  time      : A.D. 2026-Jan-01 00:00:00.0000 UT      
Step-size       : 60 minutes
*******************************************************************************
Target pole/equ : MOON_ME                         {East-longitude positive}
Target radii    : 1737.4, 1737.4, 1737.4 km       {Equator_a, b, pole_c}       
Center geodetic : 0.0, 0.0, -6378.137             {E-lon(deg),Lat(deg),Alt(km)}
Center cylindric: 0.0, 0.0, 0.0                   {E-lon(deg),Dxy(km),Dz(km)}
Center pole/equ : ITRF93                          {East-longitude positive}
Center radii    : 6378.137, 6378.137, 6356.752 km {Equator_a, b, pole_c}       
Target primary  : Earth
Vis. interferer : MOON (R_eq= 1737.400) km        {source: DE441}
Rel. light bend : Sun                             {source: DE441}
Rel. lght bnd GM: 1.3271E+11 km^3/s^2                                          
Atmos refraction: NO (AIRLESS)
RA format       : HMS
Time format     : CAL 
Calendar mode   : Mixed Julian/Gregorian
EOP file        : eop.231027.p240119                                           
EOP coverage    : DATA-BASED 1962-JAN-20 TO 2023-OCT-27. PREDICTS-> 2024-JAN-18
Units conversion: 1 au= 149597870.700 km, c= 299792.458 km/s, 1 day= 86400.0 s 
Table cut-offs 1: Elevation (-90.0deg=NO ),Airmass (>38.000=NO), Daylight (NO )
Table cut-offs 2: Solar elongation (  0.0,180.0=NO ),Local Hour Angle( 0.0=NO )
Table cut-offs 3: RA/DEC angular rate (     0.0=NO )                           
Table format    : Comma Separated Values (spreadsheet)
***********************************************************************************************************************************************
 Date__(UT)__HR:MN, , , R.A._(ICRF), DEC__(ICRF),      Illu%,  ObsSub-LON, ObsSub-LAT,  SunSub-LON, SunSub-LAT,    NP.ang,  NP.dist,     S-T-O,
***********************************************************************************************************************************************
$$SOE
 2025-May-04 06:00, , , 08 53 07.61, +21 23 05.2,   46.72827,    7.612383,  -4.791737,  101.280367,   1.163761,   14.8600, -924.283,   93.7521,
 2025-May-04 07:00, , , 08 55 18.60, +21 12 16.1,   47.16225,    7.603011,  -4.747574,  100.771574,   1.164755,   15.0120, -923.767,   93.2538,
 2025-May-04 08:00, , , 08 57 29.11, +21 01 21.4,   47.59584,    7.592895,  -4.703046,  100.262790,   1.165749,   15.1622, -923.255,   92.7562,
 2025-May-04 09:00, , , 08 59 39.14, +20 50 21.4,   48.02902,    7.582040,  -4.658156,   99.754017,   1.166743,   15.3105, -922.746,   92.2593,
 2025-May-04 10:00, , , 09 01 48.69, +20 39 16.1,   48.46175,    7.570450,  -4.612911,   99.245254,   1.167738,   15.4569, -922.239,   91.7631,
 2025-May-04 11:00, , , 09 03 57.76, +20 28 05.6,   48.89402,    7.558131,  -4.567315,   98.736501,   1.168732,   15.6015, -921.736,   91.2675,
 2025-May-04 12:00, , , 09 06 06.37, +20 16 49.9,   49.32579,    7.545088,  -4.521373,   98.227758,   1.169727,   15.7443, -921.235,   90.7726,
 2025-May-04 13:00, , , 09 08 14.50, +20 05 29.3,   49.75703,    7.531326,  -4.475092,   97.719025,   1.170721,   15.8852, -920.737,   90.2784,
 2025-May-04 14:00, , , 09 10 22.18, +19 54 03.7,   50.18771,    7.516851,  -4.428475,   97.210301,   1.171716,   16.0243, -920.242,   89.7848,
 2025-May-04 15:00, , , 09 12 29.39, +19 42 33.3,   50.61781,    7.501667,  -4.381528,   96.701588,   1.172711,   16.1616, -919.750,   89.2919,
 2025-May-04 16:00, , , 09 14 36.14, +19 30 58.1,   51.04730,    7.485779,  -4.334257,   96.192885,   1.173705,   16.2970, -919.261,   88.7996,
 2025-May-04 17:00, , , 09 16 42.45, +19 19 18.2,   51.47615,    7.469194,  -4.286665,   95.684191,   1.174700,   16.4306, -918.776,   88.3080,
 2025-May-04 18:00, , , 09 18 48.30, +19 07 33.7,   51.90434,    7.451916,  -4.238759,   95.175508,   1.175695,   16.5624, -918.293,   87.8170,
 2025-May-04 19:00, , , 09 20 53.71, +18 55 44.8,   52.33184,    7.433952,  -4.190544,   94.666835,   1.176690,   16.6924, -917.813,   87.3266,
 2025-May-04 20:00, , , 09 22 58.67, +18 43 51.4,   52.75861,    7.415306,  -4.142024,   94.158171,   1.177684,   16.8206, -917.336,   86.8369,
 2025-May-04 21:00, , , 09 25 03.20, +18 31 53.7,   53.18464,    7.395984,  -4.093204,   93.649517,   1.178679,   16.9469, -916.862,   86.3478,
 2025-May-04 22:00, , , 09 27 07.30, +18 19 51.7,   53.60990,    7.375992,  -4.044090,   93.140873,   1.179673,   17.0715, -916.391,   85.8593,
 2025-May-04 23:00, , , 09 29 10.97, +18 07 45.6,   54.03437,    7.355335,  -3.994687,   92.632239,   1.180668,   17.1944, -915.924,   85.3714,
 2025-May-05 00:00, , , 09 31 14.21, +17 55 35.3,   54.45801,    7.334019,  -3.944999,   92.123615,   1.181662,   17.3154, -915.459,   84.8841,
 2025-May-05 01:00, , , 09 33 17.04, +17 43 21.1,   54.88080,    7.312050,  -3.895031,   91.615000,   1.182657,   17.4347, -914.998,   84.3975,
 2025-May-05 02:00, , , 09 35 19.45, +17 31 02.9,   55.30273,    7.289434,  -3.844790,   91.106395,   1.183651,   17.5522, -914.539,   83.9114,
 2025-May-05 03:00, , , 09 37 21.44, +17 18 40.8,   55.72376,    7.266176,  -3.794278,   90.597800,   1.184645,   17.6679, -914.084,   83.4259,
 2025-May-05 04:00, , , 09 39 23.03, +17 06 15.0,   56.14386,    7.242281,  -3.743502,   90.089215,   1.185639,   17.7819, -913.632,   82.9411,
 2025-May-05 05:00, , , 09 41 24.22, +16 53 45.4,   56.56302,    7.217757,  -3.692466,   89.580639,   1.186632,   17.8942, -913.183,   82.4568,
 2025-May-05 06:00, , , 09 43 25.01, +16 41 12.3,   56.98122,    7.192608,  -3.641175,   89.072073,   1.187626,   18.0047, -912.737,   81.9730,
 2025-May-05 07:00, , , 09 45 25.41, +16 28 35.5,   57.39842,    7.166841,  -3.589634,   88.563517,   1.188619,   18.1136, -912.295,   81.4899,
 2025-May-05 08:00, , , 09 47 25.42, +16 15 55.3,   57.81460,    7.140462,  -3.537847,   88.054970,   1.189612,   18.2207, -911.855,   81.0073,
 2025-May-05 09:00, , , 09 49 25.05, +16 03 11.7,   58.22974,    7.113476,  -3.485821,   87.546433,   1.190605,   18.3260, -911.419,   80.5253,
 2025-May-05 10:00, , , 09 51 24.29, +15 50 24.7,   58.64383,    7.085890,  -3.433558,   87.037905,   1.191598,   18.4297, -910.985,   80.0439,
 2025-May-05 11:00, , , 09 53 23.17, +15 37 34.5,   59.05682,    7.057709,  -3.381065,   86.529387,   1.192590,   18.5317, -910.555,   79.5630,
 2025-May-05 12:00, , , 09 55 21.67, +15 24 41.1,   59.46871,    7.028940,  -3.328346,   86.020879,   1.193582,   18.6320, -910.129,   79.0826,
 2025-May-05 13:00, , , 09 57 19.81, +15 11 44.5,   59.87947,    6.999588,  -3.275406,   85.512380,   1.194574,   18.7307, -909.705,   78.6028,
 2025-May-05 14:00, , , 09 59 17.59, +14 58 44.9,   60.28908,    6.969660,  -3.222249,   85.003890,   1.195565,   18.8276, -909.284,   78.1235,
 2025-May-05 15:00, , , 10 01 15.01, +14 45 42.3,   60.69752,    6.939162,  -3.168880,   84.495410,   1.196556,   18.9229, -908.867,   77.6448,
 2025-May-05 16:00, , , 10 03 12.08, +14 32 36.8,   61.10475,    6.908100,  -3.115304,   83.986939,   1.197547,   19.0166, -908.453,   77.1666,
 2025-May-05 17:00, , , 10 05 08.81, +14 19 28.5,   61.51077,    6.876479,  -3.061525,   83.478478,   1.198537,   19.1086, -908.042,   76.6889,
 2025-May-05 18:00, , , 10 07 05.20, +14 06 17.3,   61.91556,    6.844306,  -3.007548,   82.970026,   1.199527,   19.1990, -907.634,   76.2117,
 2025-May-05 19:00, , , 10 09 01.25, +13 53 03.4,   62.31908,    6.811588,  -2.953379,   82.461583,   1.200516,   19.2877, -907.230,   75.7351,
 2025-May-05 20:00, , , 10 10 56.97, +13 39 46.9,   62.72132,    6.778330,  -2.899020,   81.953150,   1.201505,   19.3748, -906.829,   75.2589,
 2025-May-05 21:00, , , 10 12 52.37, +13 26 27.8,   63.12227,    6.744538,  -2.844478,   81.444725,   1.202494,   19.4603, -906.430,   74.7833,
 2025-May-05 22:00, , , 10 14 47.44, +13 13 06.2,   63.52189,    6.710219,  -2.789756,   80.936310,   1.203482,   19.5442, -906.036,   74.3081,
 2025-May-05 23:00, , , 10 16 42.20, +12 59 42.1,   63.92017,    6.675379,  -2.734860,   80.427905,   1.204469,   19.6265, -905.644,   73.8334,
 2025-May-06 00:00, , , 10 18 36.65, +12 46 15.5,   64.31708,    6.640024,  -2.679793,   79.919508,   1.205456,   19.7073, -905.255,   73.3593,
 2025-May-06 01:00, , , 10 20 30.80, +12 32 46.7,   64.71262,    6.604160,  -2.624560,   79.411120,   1.206443,   19.7864, -904.870,   72.8856,
 2025-May-06 02:00, , , 10 22 24.64, +12 19 15.6,   65.10675,    6.567793,  -2.569166,   78.902742,   1.207428,   19.8639, -904.488,   72.4124,
 2025-May-06 03:00, , , 10 24 18.19, +12 05 42.2,   65.49946,    6.530930,  -2.513615,   78.394372,   1.208414,   19.9399, -904.109,   71.9396,
 2025-May-06 04:00, , , 10 26 11.45, +11 52 06.7,   65.89074,    6.493577,  -2.457913,   77.886012,   1.209398,   20.0144, -903.733,   71.4673,
 2025-May-06 05:00, , , 10 28 04.42, +11 38 29.1,   66.28055,    6.455739,  -2.402062,   77.377660,   1.210382,   20.0873, -903.361,   70.9955,
 2025-May-06 06:00, , , 10 29 57.11, +11 24 49.5,   66.66888,    6.417424,  -2.346067,   76.869318,   1.211366,   20.1586, -902.991,   70.5241,
 2025-May-06 07:00, , , 10 31 49.53, +11 11 07.8,   67.05572,    6.378636,  -2.289934,   76.360984,   1.212348,   20.2284, -902.625,   70.0532,
 2025-May-06 08:00, , , 10 33 41.67, +10 57 24.3,   67.44104,    6.339384,  -2.233667,   75.852659,   1.213330,   20.2967, -902.262,   69.5828,
